$$SOE
2459580.500000000, A.D. 2022-Jan-01 00:00:00.0000, 4.601208753460396E+08, -1.491240427609108E+08, -1.326501731178781E+08,
2459587.500000000, A.D. 2022-Jan-08 00:00:00.0000, 4.623103264001742E+08, -1.397605837978991E+08, -1.338795550732330E+08,
2459594.500000000, A.D. 2022-Jan-15 00:00:00.0000, 4.643218832419475E+08, -1.303434550947399E+08, -1.350570887770257E+08,
2459601.500000000, A.D. 2022-Jan-22 00:00:00.0000, 4.661543792327279E+08, -1.208761794113321E+08, -1.361822091789821E+08,
2459608.500000000, A.D. 2022-Jan-29 00:00:00.0000, 4.678067072933362E+08, -1.113623102650317E+08, -1.372543676450003E+08,
2459615.500000000, A.D. 2022-Feb-05 00:00:00.0000, 4.692778185896489E+08, -1.018054317958194E+08, -1.382730321135232E+08,
2459622.500000000, A.D. 2022-Feb-12 00:00:00.0000, 4.705667233902797E+08, -9.220915967491558E+07, -1.392376875381466E+08,
2459629.500000000, A.D. 2022-Feb-19 00:00:00.0000, 4.716724927705680E+08, -8.257714068650426E+07, -1.401478363011571E+08,
2459636.500000000, A.D. 2022-Feb-26 00:00:00.0000, 4.725942598512602E+08, -7.291305170467880E+07, -1.410029985370203E+08,
2459643.500000000, A.D. 2022-Mar-05 00:00:00.0000, 4.733312207307593E+08, -6.322059868184170E+07, -1.418027124311216E+08,
2459650.500000000, A.D. 2022-Mar-12 00:00:00.0000, 4.738826353321947E+08, -5.350351571354538E+07, -1.425465345197162E+08,
2459657.500000000, A.D. 2022-Mar-19 00:00:00.0000, 4.742478282357727E+08, -4.376556415090602E+07, -1.432340399955518E+08,
2459664.500000000, A.D. 2022-Mar-26 00:00:00.0000, 4.744261895182428E+08, -3.401053176569536E+07, -1.438648230219393E+08,
2459671.500000000, A.D. 2022-Apr-02 00:00:00.0000, 4.744171756666647E+08, -2.424223202325087E+07, -1.444384970662706E+08,
2459678.500000000, A.D. 2022-Apr-09 00:00:00.0000, 4.742203108374849E+08, -1.446450345784712E+07, -1.449546952775159E+08,
2459685.500000000, A.D. 2022-Apr-16 00:00:00.0000, 4.738351888163425E+08, -4.681208495500013E+06, -1.454130708865665E+08,
2459692.500000000, A.D. 2022-Apr-23 00:00:00.0000, 4.732614744087983E+08, 5.103769361930802E+06, -1.458132974241925E+08,
2459699.500000000, A.D. 2022-Apr-30 00:00:00.0000, 4.724989023926191E+08, 1.488652774710612E+07, -1.461550687692260E+08,
2459706.500000000, A.D. 2022-May-07 00:00:00.0000, 4.715472770938818E+08, 2.466314505808233E+07, -1.464380994693589E+08,
2459713.500000000, A.D. 2022-May-14 00:00:00.0000, 4.704064739742385E+08, 3.442968054836662E+07, -1.466621252130344E+08,
2459720.500000000, A.D. 2022-May-21 00:00:00.0000, 4.690764411970761E+08, 4.418217563599580E+07, -1.468269032037528E+08,
2459727.500000000, A.D. 2022-May-28 00:00:00.0000, 4.675572006932030E+08, 5.391665547359061E+07, -1.469322124711788E+08,
2459734.500000000, A.D. 2022-Jun-04 00:00:00.0000, 4.658488490024880E+08, 6.362913046690735E+07, -1.469778541699236E+08,
2459741.500000000, A.D. 2022-Jun-11 00:00:00.0000, 4.639515580351406E+08, 7.331559774419647E+07, -1.469636518787911E+08,
2459748.500000000, A.D. 2022-Jun-18 00:00:00.0000, 4.618655757899566E+08, 8.297204258966178E+07, -1.468894519023635E+08,
2459755.500000000, A.D. 2022-Jun-25 00:00:00.0000, 4.595912270571859E+08, 9.259443980794135E+07, -1.467551235794570E+08,
2459762.500000000, A.D. 2022-Jul-02 00:00:00.0000, 4.571289142380258E+08, 1.021787549542134E+08, -1.465605596150627E+08,
2459769.500000000, A.D. 2022-Jul-09 00:00:00.0000, 4.544791186687213E+08, 1.117209456074252E+08, -1.463056764559690E+08,
2459776.500000000, A.D. 2022-Jul-16 00:00:00.0000, 4.516424023914070E+08, 1.212169637705559E+08, -1.459904146152578E+08,
2459783.500000000, A.D. 2022-Jul-23 00:00:00.0000, 4.486194081719479E+08, 1.306627594779745E+08, -1.456147387372414E+08,
2459790.500000000, A.D. 2022-Jul-30 00:00:00.0000, 4.454108578501115E+08, 1.400542822571934E+08, -1.451786376855810E+08,
2459797.500000000, A.D. 2022-Aug-06 00:00:00.0000, 4.420175526207600E+08, 1.493874810919257E+08, -1.446821249318519E+08,
2459804.500000000, A.D. 2022-Aug-13 00:00:00.0000, 4.384403744207711E+08, 1.586583056400124E+08, -1.441252389429204E+08,
2459811.500000000, A.D. 2022-Aug-20 00:00:00.0000, 4.346802868505405E+08, 1.678627082026564E+08, -1.435080434634062E+08,
2459818.500000000, A.D. 2022-Aug-27 00:00:00.0000, 4.307383356966401E+08, 1.769966457181614E+08, -1.428306277580752E+08,
2459825.500000000, A.D. 2022-Sep-03 00:00:00.0000, 4.266156493018439E+08, 1.860560816693359E+08, -1.420931068451379E+08,
2459832.500000000, A.D. 2022-Sep-10 00:00:00.0000, 4.223134388708208E+08, 1.950369879281873E+08, -1.412956217259977E+08,
2459839.500000000, A.D. 2022-Sep-17 00:00:00.0000, 4.178329987391329E+08, 2.039353465359020E+08, -1.404383396136369E+08,
2459846.500000000, A.D. 2022-Sep-24 00:00:00.0000, 4.131757066643512E+08, 2.127471513669310E+08, -1.395214541688492E+08,
2459853.500000000, A.D. 2022-Oct-01 00:00:00.0000, 4.083430243778878E+08, 2.214684096543376E+08, -1.385451857678463E+08,
2459860.500000000, A.D. 2022-Oct-08 00:00:00.0000, 4.033364988032573E+08, 2.300951438971431E+08, -1.375097817954639E+08,
2459867.500000000, A.D. 2022-Oct-15 00:00:00.0000, 3.981577630059795E+08, 2.386233953471928E+08, -1.364155167792965E+08,
2459874.500000000, A.D. 2022-Oct-22 00:00:00.0000, 3.928085346907518E+08, 2.470492273918341E+08, -1.352626923014266E+08,
2459881.500000000, A.D. 2022-Oct-29 00:00:00.0000, 3.872906147433786E+08, 2.553687262389714E+08, -1.340516371292467E+08,
2459888.500000000, A.D. 2022-Nov-05 00:00:00.0000, 3.816058879152673E+08, 2.635780016435117E+08, -1.327827075334745E+08,
2459895.500000000, A.D. 2022-Nov-12 00:00:00.0000, 3.757563236825445E+08, 2.716731889408667E+08, -1.314562875084347E+08,
2459902.500000000, A.D. 2022-Nov-19 00:00:00.0000, 3.697439765579460E+08, 2.796504514327527E+08, -1.300727889059743E+08,
2459909.500000000, A.D. 2022-Nov-26 00:00:00.0000, 3.635709861158587E+08, 2.875059827272857E+08, -1.286326515392518E+08,
2459916.500000000, A.D. 2022-Dec-03 00:00:00.0000, 3.572395768949420E+08, 2.952360090209224E+08, -1.271363432723536E+08,
2459923.500000000, A.D. 2022-Dec-10 00:00:00.0000, 3.507520582223774E+08, 3.028367913397772E+08, -1.255843600981299E+08,
2459930.500000000, A.D. 2022-Dec-17 00:00:00.0000, 3.441108239830501E+08, 3.103046277139740E+08, -1.239772262082253E+08,
2459937.500000000, A.D. 2022-Dec-24 00:00:00.0000, 3.373183524417337E+08, 3.176358552177544E+08, -1.223154940703291E+08,
2459944.500000000, A.D. 2022-Dec-31 00:00:00.0000, 3.303772064748689E+08, 3.248268519812829E+08, -1.205997445363240E+08,
2459951.500000000, A.D. 2023-Jan-07 00:00:00.0000, 3.232900343336369E+08, 3.318740401340275E+08, -1.188305869133605E+08,
2459958.500000000, A.D. 2023-Jan-14 00:00:00.0000, 3.160595689686949E+08, 3.387738901732486E+08, -1.170086587753708E+08,
2459965.500000000, A.D. 2023-Jan-21 00:00:00.0000, 3.086886252690585E+08, 3.455229235840980E+08, -1.151346257142158E+08,
2459972.500000000, A.D. 2023-Jan-28 00:00:00.0000, 3.011800988833171E+08, 3.521177135154292E+08, -1.132091813833472E+08,
2459979.500000000, A.D. 2023-Feb-04 00:00:00.0000, 2.935369664142450E+08, 3.585548865360008E+08, -1.112330475669672E+08,
2459986.500000000, A.D. 2023-Feb-11 00:00:00.0000, 2.857622851898860E+08, 3.648311252744908E+08, -1.092069741248088E+08,
2459993.500000000, A.D. 2023-Feb-18 00:00:00.0000, 2.778591925467163E+08, 3.709431711176450E+08, -1.071317388732494E+08,
2460000.500000000, A.D. 2023-Feb-25 00:00:00.0000, 2.698309048869164E+08, 3.768878268018218E+08, -1.050081474392633E+08,
2460007.500000000, A.D. 2023-Mar-04 00:00:00.0000, 2.616807166108874E+08, 3.826619589131867E+08, -1.028370330939236E+08,
2460014.500000000, A.D. 2023-Mar-11 00:00:00.0000, 2.534119989519449E+08, 3.882625002933965E+08, -1.006192565666865E+08,
2460021.500000000, A.D. 2023-Mar-18 00:00:00.0000, 2.450281987581100E+08, 3.936864522982542E+08, -9.835570584761196E+07,
2460028.500000000, A.D. 2023-Mar-25 00:00:00.0000, 2.365328374224686E+08, 3.989308868602685E+08, -9.604729599938241E+07,
2460035.500000000, A.D. 2023-Apr-01 00:00:00.0000, 2.279295103861236E+08, 4.039929487475431E+08, -9.369496898602311E+07,
2460042.500000000, A.D. 2023-Apr-08 00:00:00.0000, 2.192218865993208E+08, 4.088698592419396E+08, -9.129969336203095E+07,
2460049.500000000, A.D. 2023-Apr-15 00:00:00.0000, 2.104137056035960E+08, 4.135589201261492E+08, -8.886246369721225E+07,
2460056.500000000, A.D. 2023-Apr-22 00:00:00.0000, 2.015087740431504E+08, 4.180575149255568E+08, -8.638430015218784E+07,
2460063.500000000, A.D. 2023-Apr-29 00:00:00.0000, 1.925109643421776E+08, 4.223631096562463E+08, -8.386624827194621E+07,
2460070.500000000, A.D. 2023-May-06 00:00:00.0000, 1.834242137890170E+08, 4.264732548557863E+08, -8.130937869012663E+07,
2460077.500000000, A.D. 2023-May-13 00:00:00.0000, 1.742525230499307E+08, 4.303855879986933E+08, -7.871478672683255E+07,
2460084.500000000, A.D. 2023-May-20 00:00:00.0000, 1.649999543463978E+08, 4.340978358017775E+08, -7.608359194138068E+07,
2460091.500000000, A.D. 2023-May-27 00:00:00.0000, 1.556706294895851E+08, 4.376078163864328E+08, -7.341693766020304E+07,
2460098.500000000, A.D. 2023-Jun-03 00:00:00.0000, 1.462687278300000E+08, 4.409134413203178E+08, -7.071599048324737E+07,
2460105.500000000, A.D. 2023-Jun-10 00:00:00.0000, 1.367984841467032E+08, 4.440127175210754E+08, -6.798193977244173E+07,
2460112.500000000, A.D. 2023-Jun-17 00:00:00.0000, 1.272641865658335E+08, 4.469037489584288E+08, -6.521599713561216E+07,
2460119.500000000, A.D. 2023-Jun-24 00:00:00.0000, 1.176701748292887E+08, 4.495847382069821E+08, -6.241939593106781E+07,
2460126.500000000, A.D. 2023-Jul-01 00:00:00.0000, 1.080208391681378E+08, 4.520539886750730E+08, -5.959339074902505E+07,
2460133.500000000, A.D. 2023-Jul-08 00:00:00.0000, 9.832061810928158E+07, 4.543099083280040E+08, -5.673925664968841E+07,
2460140.500000000, A.D. 2023-Jul-15 00:00:00.0000, 8.857399393973427E+07, 4.563510120698893E+08, -5.385828827185373E+07,
2460147.500000000, A.D. 2023-Jul-22 00:00:00.0000, 7.878548934966807E+07, 4.581759217468070E+08, -5.095179921983173E+07,
$$EOE